CUTE-1 (CO-55)          
1 27844U 03031E   24207.47374199  .00000802  00000+0  37283-3 0  9996
2 27844  98.6772 213.9699 0010528  39.7895 320.4053 14.23332945 93265
CUBESAT XI-IV (CO-57)   
1 27848U 03031J   24207.00110693  .00000734  00000+0  34675-3 0  9992
2 27848  98.6802 213.7274 0010668  55.7771 304.4416 14.22763994 92913
CUBESAT XI-V            
1 28895U 05043F   24207.27833779  .00003359  00000+0  59432-3 0  9990
2 28895  98.2070 343.1740 0014671 234.5023 125.4813 14.67957642    49
CUTE-1.7+APD II (CO-65) 
1 32785U 08021C   24207.51723439  .00007240  00000+0  62874-3 0  9997
2 32785  97.7567 172.5408 0010909 185.9588 174.1506 14.97278293881281
AAUSAT-II               
1 32788U 08021F   24206.93594500  .00029325  00000+0  13802-2 0  9994
2 32788  97.5958 187.3380 0007066  66.0400 294.1574 15.19479346884155
CANX-2                  
1 32790U 08021H   24207.42034371  .00005490  00000+0  49744-3 0  9999
2 32790  97.7687 171.1635 0011339 200.3567 159.7203 14.95722951881088
SEEDS II (CO-66)        
1 32791U 08021J   24207.38183608  .00011867  00000+0  84470-3 0  9993
2 32791  97.6934 178.3638 0006475 153.4848 206.6711 15.04765246882341
SWISSCUBE               
1 35932U 09051B   24207.63268390  .00002207  00000+0  47776-3 0  9993
2 35932  98.4658  91.7080 0006787 189.3573 170.7500 14.59252008788204
BEESAT-1                
1 35933U 09051C   24207.64483239  .00001981  00000+0  43248-3 0  9994
2 35933  98.4591  92.5792 0004856 199.9961 160.1048 14.58962243788313
ITUPSAT1                
1 35935U 09051E   24207.20671128  .00001856  00000+0  41515-3 0  9990
2 35935  98.4688  91.8973 0006935 213.1679 146.9085 14.57904639787800
TISAT 1                 
1 36799U 10035E   24207.22717115  .00010528  00000+0  77873-3 0  9994
2 36799  98.0858  98.3268 0006817 101.2005 258.9986 15.03364897762773
AEROCUBE 4.5A           
1 38767U 12048K   24207.43833553  .00021353  00000+0  10977-2 0  9994
2 38767  64.6586 191.1100 0110396   5.0140 355.2058 15.11274897266244
AEROCUBE 4.5B           
1 38768U 12048L   24207.69734656  .00042439  00000+0  13749-2 0  9995
2 38768  64.6541 112.5747 0086849 352.0391   7.9353 15.28131833267305
STRAND-1                
1 39090U 13009E   24207.10928182  .00000829  00000+0  29900-3 0  9991
2 39090  98.3816  34.3518 0009726 134.1272 226.0716 14.36140582597689
BRITE-AUSTRIA           
1 39091U 13009F   24207.44109228  .00000545  00000+0  20268-3 0  9994
2 39091  98.3861  33.9479 0011086 140.6628 219.5366 14.35852846597769
NEE-01 PEGASO           
1 39151U 13018B   24207.32570127  .00004683  00000+0  53946-3 0  9994
2 39151  98.0402 324.8261 0013625 275.5334  84.4327 14.86139146607640
ESTCUBE 1               
1 39161U 13021C   24207.83297332  .00002737  00000+0  39807-3 0  9997
2 39161  97.8260 273.1228 0010377 104.6024 255.6338 14.76670437602830
POPACS 1                
1 39268U 13055D   24207.14366478  .00045032  00000+0  75717-3 0  9999
2 39268  80.9802 107.5962 0392891 330.6635  27.3016 14.96211179566204
POPACS 2                
1 39269U 13055E   24206.95862536  .00014824  00000+0  34040-3 0  9993
2 39269  81.0011 198.3104 0545395 207.4159 149.7279 14.58126591561101
POPACS 3                
1 39270U 13055F   24207.53957806  .00010813  00000+0  29471-3 0  9991
2 39270  81.0056 249.6612 0622795 351.4244   7.6664 14.38204410559170
ZACUBE-1 (TSHEPISOSAT)  
1 39417U 13066B   24207.41190024  .00008134  00000+0  83310-3 0  9999
2 39417  97.7357 162.5364 0051174  36.1415 324.3243 14.89761296577271
WNISAT-1                
1 39423U 13066H   24207.52137593  .00001604  00000+0  31471-3 0  9996
2 39423  97.6701  38.7414 0168361 248.7737 109.5407 14.55385762566226
TRITON-1                
1 39427U 13066M   24207.80338181  .00004540  00000+0  63627-3 0  9997
2 39427  97.8391 124.5519 0100796 318.6048  40.7554 14.74525712572090
DELFI-N3XT              
1 39428U 13066N   24207.37014079  .00010179  00000+0  12768-2 0  9991
2 39428  97.8356 124.7088 0098440 325.8401  33.6501 14.78956076571918
GOMX-1                  
1 39430U 13066Q   24207.86338480  .00003009  00000+0  50006-3 0  9995
2 39430  97.7273  79.9030 0140649 129.4563 231.9185 14.64417397568709
CUBEBUG-2 (LO-74)       
1 39440U 13066AA  24207.28414986  .00004857  00000+0  56798-3 0  9994
2 39440  97.8137 150.1437 0070345 148.3315 212.2161 14.83760413573986
NEE-02 KRYSAOR          
1 39441U 13066AB  24207.09095292  .00003481  00000+0  44153-3 0  9993
2 39441  97.8227 145.6815 0074211 171.3768 188.8739 14.80413567573543
FUNCUBE-1 (AO-73)       
1 39444U 13066AE  24207.42963320  .00010696  00000+0  10159-2 0  9993
2 39444  97.7212 165.7788 0047723  16.7386 343.5395 14.92806494576401
UWE-3                   
1 39446U 13066AG  24207.42323711  .00006630  00000+0  72904-3 0  9999
2 39446  97.7827 156.3571 0061932  93.9310 266.8988 14.86524144574970
BRITE-CA1 (TORONTO)     
1 40020U 14033L   24207.83218289  .00001425  00000+0  23618-3 0  9997
2 40020  97.8824 343.6074 0082176 329.5696  30.0754 14.69588738540655
DUCHIFAT-1              
1 40021U 14033M   24206.85418372  .00018399  00000+0  11814-2 0  9996
2 40021  98.0916 192.6538 0011218 342.0230  18.0598 15.08468504549801
NANOSATC-BR1            
1 40024U 14033Q   24207.86784122  .00011585  00000+0  83568-3 0  9996
2 40024  98.0664 181.6043 0007631  56.3068 303.8883 15.04280384549582
QB50P1                  
1 40025U 14033R   24207.37239059  .00009917  00000+0  79106-3 0  9996
2 40025  98.0413 169.3926 0015482  45.5405 314.7081 15.00428538549117
QB50P2                  
1 40032U 14033Y   24207.37419724  .00008581  00000+0  70984-3 0  9994
2 40032  98.0104 160.8531 0011296  37.3955 322.8051 14.99116502548914
PERSEUS-M2              
1 40037U 14033AD  24207.15543873  .00003702  00000+0  38228-3 0  9993
2 40037  97.9262 138.0851 0014711  72.9687 287.3141 14.90709153547483
PERSEUS-M1              
1 40039U 14033AF  24207.38762361  .00003281  00000+0  34124-3 0  9998
2 40039  97.9055 134.2646 0014438  71.4675 288.8110 14.90500278547885
POLYITAN-1              
1 40042U 14033AJ  24207.43439817  .00013769  00000+0  10114-2 0  9999
2 40042  98.0734 173.3138 0013017  17.3206 342.8459 15.03505153549090
TIGRISAT                
1 40043U 14033AK  24207.49767372  .00004261  00000+0  56589-3 0  9990
2 40043  97.6996   8.5840 0055167 177.4631 182.6872 14.79218936543429
AEROCUBE 6A             
1 40045U 14033AM  24207.02678526  .00010522  00000+0  12381-2 0  9991
2 40045  97.6726  19.0266 0050529 156.2587 204.0975 14.84083705543404
AEROCUBE 6B             
1 40046U 14033AN  24207.44442459  .00009348  00000+0  10782-2 0  9999
2 40046  97.6695  18.1670 0049206 150.1667 210.2370 14.84982043543907
CANX-4                  
1 40055U 14034C   24207.50562899  .00002308  00000+0  32526-3 0  9998
2 40055  98.3923  43.8498 0014562  70.8501 289.4284 14.78249162542243
CANX-5                  
1 40056U 14034D   24207.51055440  .00002296  00000+0  32349-3 0  9998
2 40056  98.3925  43.8603 0014565  71.0139 289.2648 14.78258687542241
UKUBE-1                 
1 40074U 14037F   24207.77512853  .00009438  00000+0  87765-3 0  9992
2 40074  98.3426 140.0889 0002429 334.2906  25.8191 14.94574008544543
BRITE-PL2 (HEWELIUSZ)   
1 40119U 14049B   24207.25252681  .00003248  00000+0  34930-3 0  9997
2 40119  97.8847 306.7572 0014678 236.3893 123.5924 14.89147751538245
AEROCUBE 5C             
1 40965U 15058B   24207.23198027  .00004741  00000+0  43354-3 0  9997
2 40965  64.7682 244.8182 0192355 296.6778  61.4747 14.83141847262671
AEROCUBE 7              
1 40966U 15058C   24207.26476094  .00005975  00000+0  52288-3 0  9990
2 40966  64.7656 238.1249 0187108 296.3111  61.8883 14.85106486262768
FOX-1A (AO-85)          
1 40967U 15058D   24207.57778110  .00004672  00000+0  43561-3 0  9996
2 40967  64.7764 257.7619 0191542 292.3935  65.6978 14.82545521 10687
SINOD-D 1               
1 40968U 15058E   24207.22751653  .00005893  00000+0  52446-3 0  9990
2 40968  64.7762 251.2352 0186072 291.4925  66.6434 14.84631757 13466
SNAP-3 ALICE            
1 40970U 15058G   24207.24909977  .00019616  00000+0  13154-2 0  9999
2 40970  64.7688 206.1392 0155480 289.5293  68.9087 14.97502425 11486
LMRST-SAT               
1 40971U 15058H   24207.28432510  .00004724  00000+0  43939-3 0  9997
2 40971  64.7751 254.1971 0192689 293.8649  64.2371 14.82482368 10648
SNAP-3 EDDIE            
1 40972U 15058J   24207.25035781  .00020314  00000+0  13454-2 0  9995
2 40972  64.7669 199.4718 0156024 290.3971  68.0445 14.97860454 13582
PROPCUBE 3              
1 40973U 15058K   24207.26281214  .00005771  00000+0  51273-3 0  9993
2 40973  64.7693 241.7265 0189130 295.2183  62.9423 14.84344381 11681
BISONSAT                
1 40974U 15058L   24207.25503108  .00012929  00000+0  97034-3 0  9990
2 40974  64.7658 214.7270 0169898 292.9258  65.4001 14.92069592 11446
SNAP-3 JIMI             
1 40975U 15058M   24207.26811824  .00008459  00000+0  69799-3 0  9999
2 40975  64.7675 229.1853 0180991 294.2123  64.0164 14.87641971 10698
PROPCUBE 1 (FLORA)      
1 40976U 15058N   24207.78054352  .00004189  00000+0  40637-3 0  9998
2 40976  64.7750 268.3100 0190799 294.9501  63.1888 14.81333312 13515
SINOD-D 3               
1 40977U 15058P   24207.65012541  .00005463  00000+0  50511-3 0  9997
2 40977  64.7738 261.6461 0185341 294.1855  63.9976 14.83403072 11730
HORYU-4                 
1 41340U 16012D   24207.03887555  .00017093  00000+0  82289-3 0  9999
2 41340  31.0022  88.7133 0010310 353.0607   6.9889 15.17531211463900
RAVAN                   
1 41849U 16067B   24207.09960375  .00013319  00000+0  71467-3 0  9994
2 41849  98.0663  27.0428 0011784 257.9568 102.0342 15.15032185421725
CELTEE 1                
1 41850U 16067C   24207.01692812  .00008539  00000+0  57223-3 0  9998
2 41850  98.1064  18.4783 0001955  83.3983 276.7465 15.07150115421126
